     3.02           N: GNSS NAV DATA    E: GALILEO          RINEX VERSION / TYPE
Spider v7.5.1.8670  SMO                 20220126 002408 UTC PGM / RUN BY / DATE
GAL    9.3750D+01 -2.3047D-01 -7.2632D-03  0.0000D+00       IONOSPHERIC CORR
GAUT -1.8626451492D-09 8.881784197D-16 172800 2194          TIME SYSTEM CORR
GPGA  5.0931703299D-09 5.773159728D-15 259200 2194          TIME SYSTEM CORR
    18    18  2185     7                                    LEAP SECONDS
                                                            END OF HEADER
E31 2022 01 25 17 40 00-4.912504227832D-04-4.547473508865D-13 0.000000000000D+00
     1.000000000000D+01 1.173437500000D+02 3.114772662016D-09-2.721826794714D+00
     5.420297384262D-06 2.789229620248D-04 7.349997758865D-06 5.440618019104D+03
     2.364000000000D+05-9.313225746155D-08 2.503313086752D+00-5.960464477539D-08
     9.745123864554D-01 1.867812500000D+02-4.276498199144D-01-5.667378926223D-09
     4.535903250225D-11 5.170000000000D+02 2.194000000000D+03 0.000000000000D+00
     3.120000000000D+00 0.000000000000D+00 5.587935447693D-09 6.286427378654D-09
     2.370850000000D+05
E01 2022 01 25 17 40 00-5.664071068168D-04-7.304379323614D-12 0.000000000000D+00
     1.000000000000D+01 1.328125000000D+02 3.108700852295D-09-2.504645682238D+00
     6.239861249924D-06 2.972302027047D-04 7.415190339088D-06 5.440616455078D+03
     2.364000000000D+05 7.823109626770D-08 2.506276631087D+00-9.685754776001D-08
     9.749595697909D-01 1.850312500000D+02 1.765616647192D-01-5.771311826875D-09
     1.139333141720D-10 5.170000000000D+02 2.194000000000D+03 0.000000000000D+00
     3.120000000000D+00 0.000000000000D+00 1.396983861923D-09 1.629814505577D-09
     2.370850000000D+05
E12 2022 01 25 17 40 00 4.792246909346D-03-1.892885848065D-11 0.000000000000D+00
     1.000000000000D+01-7.884375000000D+01 2.439387358777D-09 1.558008092354D+00
    -3.634020686150D-06 3.897618735209D-04 8.387491106987D-06 5.440610006332D+03
     2.364000000000D+05-9.126961231232D-08-1.693401065500D+00-2.235174179077D-08
     9.935251252008D-01 1.787500000000D+02-4.789972994516D-01-5.325221816864D-09
    -2.750114545813D-11 5.170000000000D+02 2.194000000000D+03 0.000000000000D+00
     3.120000000000D+00 0.000000000000D+00-1.024454832077D-08-1.024454832077D-08
     2.370850000000D+05
E31 2022 01 25 17 30 00-4.912501317449D-04-4.831690603169D-13 0.000000000000D+00
     9.000000000000D+00 1.164375000000D+02 3.112272439765D-09-2.796589860987D+00
     5.379319190979D-06 2.789977006614D-04 7.374212145805D-06 5.440617761612D+03
     2.358000000000D+05-9.499490261078D-08 2.503316477797D+00-4.470348358154D-08
     9.745124332687D-01 1.862812500000D+02-4.272720198575D-01-5.657378509666D-09
     4.035882392173D-11 2.580000000000D+02 2.194000000000D+03 0.000000000000D+00
     3.120000000000D+00 0.000000000000D+00 5.587935447693D-09 0.000000000000D+00
     2.370500000000D+05
E12 2022 01 25 17 40 00 4.792247607838D-03-1.892885848065D-11 0.000000000000D+00
     1.000000000000D+01-7.884375000000D+01 2.439387358777D-09 1.558008092354D+00
    -3.634020686150D-06 3.897618735209D-04 8.387491106987D-06 5.440610006332D+03
     2.364000000000D+05-9.126961231232D-08-1.693401065500D+00-2.235174179077D-08
     9.935251252008D-01 1.787500000000D+02-4.789972994516D-01-5.325221816864D-09
    -2.750114545813D-11 2.580000000000D+02 2.194000000000D+03 0.000000000000D+00
     3.120000000000D+00 0.000000000000D+00-1.024454832077D-08 0.000000000000D+00
     2.371000000000D+05
E31 2022 01 25 17 40 00-4.912503645755D-04-4.689582056017D-13 0.000000000000D+00
     1.000000000000D+01 1.173437500000D+02 3.114772662016D-09-2.721826794714D+00
     5.420297384262D-06 2.789229620248D-04 7.349997758865D-06 5.440618019104D+03
     2.364000000000D+05-9.313225746155D-08 2.503313086752D+00-5.960464477539D-08
     9.745123864554D-01 1.867812500000D+02-4.276498199144D-01-5.667378926223D-09
     4.535903250225D-11 2.580000000000D+02 2.194000000000D+03 0.000000000000D+00
     3.120000000000D+00 0.000000000000D+00 5.587935447693D-09 0.000000000000D+00
     2.371000000000D+05
E01 2022 01 25 17 40 00-5.664064665325D-04-7.318590178329D-12 0.000000000000D+00
     1.000000000000D+01 1.328125000000D+02 3.108700852295D-09-2.504645682238D+00
     6.239861249924D-06 2.972302027047D-04 7.415190339088D-06 5.440616455078D+03
     2.364000000000D+05 7.823109626770D-08 2.506276631087D+00-9.685754776001D-08
     9.749595697909D-01 1.850312500000D+02 1.765616647192D-01-5.771311826875D-09
     1.139333141720D-10 2.580000000000D+02 2.194000000000D+03 0.000000000000D+00
     3.120000000000D+00 0.000000000000D+00 1.396983861923D-09 0.000000000000D+00
     2.371000000000D+05
E19 2022 01 25 17 40 00 4.864403163083D-04 9.535483513901D-12 0.000000000000D+00
     1.000000000000D+01-5.550000000000D+01 3.463358488887D-09 2.716715806598D+00
    -2.536922693253D-06 1.310670049861D-04 7.105991244316D-06 5.440611373901D+03
     2.364000000000D+05 3.352761268616D-08 4.080977281427D-01-1.862645149231D-08
     9.619272635602D-01 1.888437500000D+02-2.881242904475D+00-5.735238895721D-09
    -4.250176946496D-11 2.580000000000D+02 2.194000000000D+03 0.000000000000D+00
     3.120000000000D+00 0.000000000000D+00-2.793967723846D-09 0.000000000000D+00
     2.371000000000D+05
E26 2022 01 25 17 40 00-7.292724912986D-04-4.403943876241D-11 0.000000000000D+00
     1.000000000000D+01-8.912500000000D+01 2.546534538794D-09-2.058654105584D+00
    -4.138797521591D-06 3.013546811417D-04 1.021660864353D-05 5.440608137131D+03
     2.364000000000D+05 4.656612873077D-08-1.692472463620D+00 5.587935447693D-09
     9.899331375915D-01 1.347500000000D+02-1.615127809219D+00-5.470942172416D-09
    -3.142987953231D-11 2.580000000000D+02 2.194000000000D+03 0.000000000000D+00
     3.120000000000D+00 0.000000000000D+00-3.492459654808D-09 0.000000000000D+00
     2.371000000000D+05
E04 2022 01 25 17 40 00-9.504625923000D-04-8.171241461241D-12 0.000000000000D+00
     1.000000000000D+01-5.106250000000D+01 3.520146618641D-09 1.551963529899D+00
    -2.300366759300D-06 7.756345439702D-05 6.673857569695D-06 5.440611770630D+03
     2.364000000000D+05-1.303851604462D-08 4.067295632675D-01-1.490116119385D-08
     9.562658715348D-01 1.917812500000D+02-2.587902762481D+00-5.813099281775D-09
    -2.857261953079D-12 5.170000000000D+02 2.194000000000D+03 0.000000000000D+00
     3.120000000000D+00 0.000000000000D+00-2.328306436539D-09-2.561137080193D-09
     2.372350000000D+05
E04 2022 01 25 17 40 00-9.504616027698D-04-8.185452315956D-12 0.000000000000D+00
     1.000000000000D+01-5.106250000000D+01 3.520146618641D-09 1.551963529899D+00
    -2.300366759300D-06 7.756345439702D-05 6.673857569695D-06 5.440611770630D+03
     2.364000000000D+05-1.303851604462D-08 4.067295632675D-01-1.490116119385D-08
     9.562658715348D-01 1.917812500000D+02-2.587902762481D+00-5.813099281775D-09
    -2.857261953079D-12 2.580000000000D+02 2.194000000000D+03 0.000000000000D+00
     3.120000000000D+00 0.000000000000D+00-2.328306436539D-09 0.000000000000D+00
     2.372500000000D+05
E26 2022 01 25 17 50 00-7.293000817299D-04-4.403943876241D-11 0.000000000000D+00
     1.100000000000D+01-8.965625000000D+01 2.557249301205D-09-1.985272823953D+00
    -4.161149263382D-06 3.013070672750D-04 1.031346619129D-05 5.440607530594D+03
     2.370000000000D+05 4.656612873077D-08-1.692475746408D+00 5.587935447693D-09
     9.899331185736D-01 1.323437500000D+02-1.614124096736D+00-5.470942172416D-09
    -3.142987953231D-11 5.170000000000D+02 2.194000000000D+03 0.000000000000D+00
     3.120000000000D+00 0.000000000000D+00-3.492459654808D-09-3.958120942116D-09
     2.376550000000D+05
E19 2022 01 25 17 50 00 4.864451475441D-04 9.563905223331D-12 0.000000000000D+00
     1.100000000000D+01-5.556250000000D+01 3.458001218704D-09 2.791080474928D+00
    -2.544373273849D-06 1.310759689659D-04 7.111579179764D-06 5.440611352921D+03
     2.370000000000D+05 3.539025783539D-08 4.080942829707D-01-7.450580596924D-09
     9.619272869669D-01 1.888125000000D+02-2.881221923304D+00-5.728095741037D-09
    -4.535903250225D-11 5.170000000000D+02 2.194000000000D+03 0.000000000000D+00
     3.120000000000D+00 0.000000000000D+00-2.793967723846D-09-2.561137080193D-09
     2.376640000000D+05
E04 2022 01 25 17 50 00-9.504674817435D-04-8.171241461241D-12 0.000000000000D+00
     1.100000000000D+01-5.068750000000D+01 3.517646618434D-09 1.627029111539D+00
    -2.270564436913D-06 7.760035805404D-05 6.701797246933D-06 5.440611642838D+03
     2.370000000000D+05-1.303851604462D-08 4.067260639674D-01-1.676380634308D-08
     9.562658744606D-01 1.914687500000D+02-2.588582700471D+00-5.811670650839D-09
    -2.500104073419D-12 5.170000000000D+02 2.194000000000D+03 0.000000000000D+00
     3.120000000000D+00 0.000000000000D+00-2.328306436539D-09-2.561137080193D-09
     2.376850000000D+05
E31 2022 01 25 17 50 00-4.912507720292D-04-4.547473508865D-13 0.000000000000D+00
     1.100000000000D+01 1.187812500000D+02 3.115844027235D-09-2.646855081213D+00
     5.485489964485D-06 2.788264537230D-04 7.323920726776D-06 5.440618392944D+03
     2.370000000000D+05-8.754432201385D-08 2.503309681079D+00-7.636845111847D-08
     9.745123411049D-01 1.873125000000D+02-4.282362262377D-01-5.677736500515D-09
     5.143071385438D-11 5.170000000000D+02 2.194000000000D+03 0.000000000000D+00
     3.120000000000D+00 0.000000000000D+00 5.587935447693D-09 6.286427378654D-09
     2.376850000000D+05
